NORAD_CAT_ID,OBJECT_NAME,OBJECT_TYPE,EPOCH,MEAN_MOTION,ECCENTRICITY,INCLINATION,RA_OF_ASC_NODE,ARG_OF_PERICENTER,MEAN_ANOMALY,BSTAR,MEAN_MOTION_DOT,MEAN_MOTION_DDOT,TLE_LINE0,TLE_LINE1,TLE_LINE2,SEMIMAJOR_AXIS,PERIOD,APOGEE,PERIGEE,DECAYED
55439.0,STARLINK-5634,PAYLOAD,2024-07-26 20:12:47,14.98338955,0.0002607,70.0011,154.2682,267.8543,92.2317,2.4207e-05,1.96e-06,0.0,0 STARLINK-5634,1 55439U 23014BA  24208.84221156  .00000196  00000-0  24207-4 0  9996,2 55439  70.0011 154.2682 0002607 267.8543  92.2317 14.98338955 81621,6950.165,96.106,573.842,570.218,0.0
55439.0,STARLINK-5634,PAYLOAD,2024-07-27 05:49:35,14.98340325,0.0002599,70.0012,153.2585,267.9384,92.1477,3.9332e-05,3.77e-06,0.0,0 STARLINK-5634,1 55439U 23014BA  24209.24276802  .00000377  00000-0  39332-4 0  9995,2 55439  70.0012 153.2585 0002599 267.9384  92.1477 14.98340325 82628,6950.161,96.106,573.832,570.22,0.0
55439.0,STARLINK-5634,PAYLOAD,2024-07-27 21:50:55,14.98337683,0.0002717,70.0007,151.5749,268.4536,91.6311,0.00013993,1.577e-05,0.0,0 STARLINK-5634,1 55439U 23014BA  24209.91036299  .00001577  00000-0  13993-3 0  9990,2 55439  70.0007 151.5749 0002717 268.4536  91.6311 14.98337683 82727,6950.169,96.107,573.922,570.146,0.0
55439.0,STARLINK-5634,PAYLOAD,2024-07-28 04:15:27,14.98340084,0.0002761,70.0006,150.9017,270.2949,89.7894,0.00013875,1.563e-05,0.0,0 STARLINK-5634,1 55439U 23014BA  24210.17740060  .00001563  00000-0  13875-3 0  9992,2 55439  70.0006 150.9017 0002761 270.2949  89.7894 14.98340084 81828,6950.162,96.106,573.946,570.108,0.0
55439.0,STARLINK-5634,PAYLOAD,2024-07-28 20:16:49,14.98326509,0.0002702,70.0006,149.2161,268.2865,91.7984,-7.3953e-05,-9.75e-06,0.0,0 STARLINK-5634,1 55439U 23014BA  24210.84501373 -.00000975  00000-0 -73953-4 0  9990,2 55439  70.0006 149.2161 0002702 268.2865  91.7984 14.98326509 81928,6950.204,96.107,573.947,570.191,0.0
55439.0,STARLINK-5634,PAYLOAD,2024-07-28 21:52:57,14.98322678,0.0002815,70.0003,149.0482,268.3066,91.777,-0.00011266,-1.437e-05,0.0,0 STARLINK-5634,1 55439U 23014BA  24210.91177703 -.00001437  00000-0 -11266-3 0  9996,2 55439  70.0003 149.0482 0002815 268.3066  91.7770 14.98322678 82879,6950.216,96.107,574.037,570.124,0.0
55439.0,STARLINK-5634,PAYLOAD,2024-07-29 05:53:37,14.98324356,0.0002855,70.0006,148.2074,271.0346,89.0486,-0.00013798,-1.739e-05,0.0,0 STARLINK-5634,1 55439U 23014BA  24211.24557787 -.00001739  00000-0 -13798-3 0  9994,2 55439  70.0006 148.2074 0002855 271.0346  89.0486 14.98324356 82921,6950.21,96.107,574.06,570.091,0.0
55439.0,STARLINK-5634,PAYLOAD,2024-07-29 20:18:49,14.98331043,0.0003019,70.0002,146.6929,269.8487,90.2326,-5.1041e-05,-7.02e-06,0.0,0 STARLINK-5634,1 55439U 23014BA  24211.84641198 -.00000702  00000-0 -51041-4 0  9993,2 55439  70.0002 146.6929 0003019 269.8487  90.2326 14.98331043 82076,6950.19,96.107,574.153,569.956,0.0
55439.0,STARLINK-5634,PAYLOAD,2024-07-29 21:54:58,14.98330996,0.0003043,70.0002,146.5248,269.5302,90.5508,-4.3673e-05,-6.14e-06,0.0,0 STARLINK-5634,1 55439U 23014BA  24211.91317181 -.00000614  00000-0 -43673-4 0  9997,2 55439  70.0002 146.5248 0003043 269.5302  90.5508 14.98330996 83026,6950.19,96.107,574.17,569.94,0.0
55439.0,STARLINK-5634,PAYLOAD,2024-07-30 12:20:10,14.9833867,0.0002963,70.0005,145.0099,269.7052,90.3767,-1.6654e-05,-2.92e-06,0.0,0 STARLINK-5634,1 55439U 23014BA  24212.51400577 -.00000292  00000-0 -16654-4 0  9997,2 55439  70.0005 145.0099 0002963 269.7052  90.3767 14.98338670 82178,6950.166,96.106,574.09,569.972,0.0
55439.0,STARLINK-5634,PAYLOAD,2024-07-30 21:56:58,14.98328451,0.0003046,70.0005,143.9999,269.4956,90.5854,0.00023948,2.765e-05,0.0,0 STARLINK-5634,1 55439U 23014BA  24212.91456782  .00002765  00000-0  23948-3 0  9998,2 55439  70.0005 143.9999 0003046 269.4956  90.5854 14.98328451 83173,6950.198,96.107,574.18,569.946,0.0
55439.0,STARLINK-5634,PAYLOAD,2024-07-31 12:22:10,14.9834901,0.0002856,70.0012,142.4831,277.0327,83.0508,-0.00017022,-2.124e-05,0.0,0 STARLINK-5634,1 55439U 23014BA  24213.51540198 -.00002124  00000-0 -17022-3 0  9997,2 55439  70.0012 142.4831 0002856 277.0327  83.0508 14.98349010 82328,6950.134,96.106,573.984,570.014,0.0
55439.0,STARLINK-5634,PAYLOAD,2024-07-31 21:59:00,14.98320301,0.0002476,70.0028,141.4793,253.7616,106.3271,-1.9733e-05,-3.28e-06,0.0,0 STARLINK-5634,1 55439U 23014BA  24213.91598196 -.00000328  00000-0 -19733-4 0  9998,2 55439  70.0028 141.4793 0002476 253.7616 106.3271 14.98320301 83320,6950.223,96.108,573.809,570.367,0.0
55439.0,STARLINK-5634,PAYLOAD,2024-08-01 12:24:12,14.98332602,0.0002684,70.0008,139.9612,267.1303,92.9549,6.4904e-05,6.82e-06,0.0,0 STARLINK-5634,1 55439U 23014BA  24214.51681401  .00000682  00000-0  64904-4 0  9998,2 55439  70.0008 139.9612 0002684 267.1303  92.9549 14.98332602 83418,6950.185,96.107,573.915,570.184,0.0
55439.0,STARLINK-5634,PAYLOAD,2024-08-01 20:24:52,14.98342819,0.0002685,70.0009,139.1212,263.293,96.7924,9.8894e-05,1.088e-05,0.0,0 STARLINK-5634,1 55439U 23014BA  24214.85060550  .00001088  00000-0  98894-4 0  9997,2 55439  70.0009 139.1212 0002685 263.2930  96.7924 14.98342819 82522,6950.153,96.106,573.884,570.152,0.0
55439.0,STARLINK-5634,PAYLOAD,2024-08-01 22:01:00,14.98343795,0.000263,70.0013,138.9528,264.3458,95.7401,8.6063e-05,9.34e-06,0.0,0 STARLINK-5634,1 55439U 23014BA  24214.91736513  .00000934  00000-0  86063-4 0  9997,2 55439  70.0013 138.9528 0002630 264.3458  95.7401 14.98343795 83479,6950.15,96.106,573.843,570.187,0.0
55439.0,STARLINK-5634,PAYLOAD,2024-08-02 12:26:13,14.98337823,0.0002482,70.0019,137.4351,273.7479,86.3396,9.7558e-05,1.072e-05,0.0,0 STARLINK-5634,1 55439U 23014BA  24215.51820864  .00001072  00000-0  97558-4 0  9992,2 55439  70.0019 137.4351 0002482 273.7479  86.3396 14.98337823 82625,6950.169,96.106,573.759,570.309,0.0
55439.0,STARLINK-5634,PAYLOAD,2024-08-02 20:26:54,14.98323677,0.0002662,70.0019,136.5898,269.2182,90.8672,0.00043085,5.051e-05,0.0,0 STARLINK-5634,1 55439U 23014BA  24215.85201700  .00005051  00000-0  43085-3 0  9997,2 55439  70.0019 136.5898 0002662 269.2182  90.8672 14.98323677 82676,6950.212,96.107,573.928,570.227,0.0
55439.0,STARLINK-5634,PAYLOAD,2024-08-02 22:03:02,14.98326568,0.0002796,70.0016,136.4266,268.1869,91.897,0.00023061,2.659e-05,0.0,0 STARLINK-5634,1 55439U 23014BA  24215.91877558  .00002659  00000-0  23061-3 0  9997,2 55439  70.0016 136.4266 0002796 268.1869  91.8970 14.98326568 83629,6950.204,96.107,574.012,570.125,0.0
55439.0,STARLINK-5634,PAYLOAD,2024-08-03 04:27:34,14.98326556,0.0002661,70.002,135.7533,267.0713,93.0141,0.00014824,1.676e-05,0.0,0 STARLINK-5634,1 55439U 23014BA  24216.18581615  .00001676  00000-0  14824-3 0  9998,2 55439  70.0020 135.7533 0002661 267.0713  93.0141 14.98326556 83665,6950.204,96.107,573.918,570.219,0.0
55439.0,STARLINK-5634,PAYLOAD,2024-08-03 20:28:54,14.98336605,0.000274,70.0018,134.0696,269.6291,90.4554,0.0001653,1.88e-05,0.0,0 STARLINK-5634,1 55439U 23014BA  24216.85341172  .00001880  00000-0  16530-3 0  9997,2 55439  70.0018 134.0696 0002740 269.6291  90.4554 14.98336605 82823,6950.172,96.107,573.942,570.133,0.0
55439.0,STARLINK-5634,PAYLOAD,2024-08-03 22:05:02,14.98336611,0.0002768,70.0022,133.9012,269.8414,90.2428,0.00024624,2.847e-05,0.0,0 STARLINK-5634,1 55439U 23014BA  24216.92017174  .00002847  00000-0  24624-3 0  9994,2 55439  70.0022 133.9012 0002768 269.8414  90.2428 14.98336611 83777,6950.172,96.107,573.961,570.114,0.0
55439.0,STARLINK-5634,PAYLOAD,2024-08-04 04:29:34,14.98346106,0.000274,70.0026,133.2275,270.3426,89.7419,0.00096815,0.00011482,0.0,0 STARLINK-5634,1 55439U 23014BA  24217.18721046  .00011482  00000-0  96815-3 0  9999,2 55439  70.0026 133.2275 0002740 270.3426  89.7419 14.98346106 83813,6950.143,96.106,573.912,570.104,0.0
55439.0,STARLINK-5634,PAYLOAD,2024-08-04 20:30:55,14.98347355,0.0002479,70.0036,131.5455,272.0183,88.0692,0.00061785,7.29e-05,0.0,0 STARLINK-5634,1 55439U 23014BA  24217.85480779  .00007290  00000-0  61785-3 0  9998,2 55439  70.0036 131.5455 0002479 272.0183  88.0692 14.98347355 82971,6950.139,96.106,573.727,570.281,0.0
55439.0,STARLINK-5634,PAYLOAD,2024-08-04 22:07:03,14.98345184,0.0002603,70.0029,131.377,269.4143,90.6717,0.00052535,6.183e-05,0.0,0 STARLINK-5634,1 55439U 23014BA  24217.92156745  .00006183  00000-0  52535-3 0  9992,2 55439  70.0029 131.3770 0002603 269.4143  90.6717 14.98345184 83927,6950.146,96.106,573.82,570.202,0.0
55439.0,STARLINK-5634,PAYLOAD,2024-08-05 20:32:56,14.98324251,0.0002276,70.0031,129.0237,251.8557,108.2354,-0.00022058,-2.723e-05,0.0,0 STARLINK-5634,1 55439U 23014BA  24218.85621360 -.00002723  00000-0 -22058-3 0  9990,2 55439  70.0031 129.0237 0002276 251.8557 108.2354 14.98324251 83129,6950.211,96.107,573.658,570.494,0.0
55439.0,STARLINK-5634,PAYLOAD,2024-08-05 22:09:05,14.98321444,0.0002354,70.0039,128.8564,248.0431,112.0478,-0.00025772,-3.166e-05,0.0,0 STARLINK-5634,1 55439U 23014BA  24218.92297524 -.00003166  00000-0 -25772-3 0  9997,2 55439  70.0039 128.8564 0002354 248.0431 112.0478 14.98321444 84079,6950.219,96.108,573.72,570.448,0.0
55439.0,STARLINK-5634,PAYLOAD,2024-08-06 04:33:37,14.9831419,0.0002508,70.0029,128.1824,250.755,109.3338,-0.00030874,-3.773e-05,0.0,0 STARLINK-5634,1 55439U 23014BA  24219.19002201 -.00003773  00000-0 -30874-3 0  9996,2 55439  70.0029 128.1824 0002508 250.7550 109.3338 14.98314190 83177,6950.242,96.108,573.85,570.364,0.0
55439.0,STARLINK-5634,PAYLOAD,2024-08-06 20:34:57,14.98336954,0.0002911,70.0012,126.4957,264.8971,95.1856,0.00020387,2.341e-05,0.0,0 STARLINK-5634,1 55439U 23014BA  24219.85761288  .00002341  00000-0  20387-3 0  9992,2 55439  70.0012 126.4957 0002911 264.8971  95.1856 14.98336954 83278,6950.171,96.107,574.06,570.013,0.0
55439.0,STARLINK-5634,PAYLOAD,2024-08-06 22:11:05,14.98337006,0.0002932,70.0015,126.3273,264.9968,95.0856,0.00039333,4.604e-05,0.0,0 STARLINK-5634,1 55439U 23014BA  24219.92437430  .00004604  00000-0  39333-3 0  9994,2 55439  70.0015 126.3273 0002932 264.9968  95.0856 14.98337006 84225,6950.171,96.107,574.074,569.998,0.0
